{
    "Mimas": {
        "gravitational_parameter": 2502600000.0,
        "orbit": {
            "argument_of_periapsis": 5.8032023095886265,
            "eccentricity": 0.0196,
            "epoch": 0.0,
            "inclination": 0.4936424680027527,
            "longitude_of_ascending_node": 2.901245059882335,
            "mean_anomaly_at_epoch": 0.25914648733611806,
            "primary": "Saturn",
            "semi_major_axis": 185539000.0
        },
        "radius": 198200.0
    },
    "Miranda": {
        "gravitational_parameter": 4400000000.0,
        "orbit": {
            "argument_of_periapsis": 1.1922693186223663,
            "eccentricity": 0.0013,
            "epoch": -631195200.0,
            "inclination": 1.3944560958092866,
            "longitude_of_ascending_node": 2.990052807634939,
            "mean_anomaly_at_epoch": 5.433733560233946,
            "primary": "Uranus",
            "semi_major_axis": 129900000.0
        },
        "radius": 235800.0
    },
    "Mneme": {
        "gravitational_parameter": 1000.0,
        "orbit": {
            "argument_of_periapsis": 0.7075913853435412,
            "eccentricity": 0.2258,
            "epoch": -43200.0,
            "inclination": 2.6011284491228706,
            "longitude_of_ascending_node": 4.1527767679294,
            "mean_anomaly_at_epoch": 4.483052716672635,
            "primary": "Jupiter",
            "semi_major_axis": 21033000000.0
        },
        "radius": 1000.0
    },
    "Moon": {
        "gravitational_parameter": 4902801000000.0,
        "orbit": {
            "argument_of_periapsis": 5.5527650152199595,
            "eccentricity": 0.0554,
            "epoch": 0.0,
            "inclination": 0.4854143996990708,
            "longitude_of_ascending_node": 3.030581440943141,
            "mean_anomaly_at_epoch": 2.3609068791727297,
            "primary": "Earth",
            "semi_major_axis": 384400000.0
        },
        "radius": 1737500.0
    },
    "Mundilfari": {
        "gravitational_parameter": 14000.0,
        "orbit": {
            "argument_of_periapsis": 5.405179973671319,
            "eccentricity": 0.2097,
            "epoch": -43200.0,
            "inclination": 2.8682515924074075,
            "longitude_of_ascending_node": 3.0591764325757134,
            "mean_anomaly_at_epoch": 1.6200320649936566,
            "primary": "Saturn",
            "semi_major_axis": 18653000000.0
        },
        "radius": 3500.0
    },
    "Naiad": {
        "gravitational_parameter": 13000000.0,
        "orbit": {
            "argument_of_periapsis": 0.03569198320328404,
            "eccentricity": 0.0003,
            "epoch": 0.0,
            "inclination": 0.5473114006682008,
            "longitude_of_ascending_node": 0.9758700651498542,
            "mean_anomaly_at_epoch": 0.5242096408364969,
            "primary": "Neptune",
            "semi_major_axis": 48227000.0
        },
        "radius": 33000.0
    },
    "Narvi": {
        "gravitational_parameter": 23000.0,
        "orbit": {
            "argument_of_periapsis": 2.9663441433970426,
            "eccentricity": 0.4296,
            "epoch": -43200.0,
            "inclination": 2.4264383113814567,
            "longitude_of_ascending_node": 1.9339349892149296,
            "mean_anomaly_at_epoch": 1.992677313586966,
            "primary": "Saturn",
            "semi_major_axis": 19349000000.0
        },
        "radius": 3500.0
    },
    "Neptune": {
        "gravitational_parameter": 6835130147999999.0,
        "north_pole": {
            "declination": 0.7585200929167356,
            "right_ascension": 5.224817648770225
        },
        "orbit": {
            "argument_of_periapsis": 4.767899814813145,
            "eccentricity": 0.00859048,
            "epoch": 0,
            "inclination": 0.030893086454925476,
            "longitude_of_ascending_node": 2.300068641354461,
            "mean_anomaly_at_epoch": 4.536376156304037,
            "primary": "Sun",
            "semi_major_axis": 4498396417009.467
        },
        "radius": 24622000.0,
        "rotational_period": 57996.0
    },
    "Nereid": {
        "gravitational_parameter": 2060000000.0,
        "orbit": {
            "argument_of_periapsis": 4.9064172333289,
            "eccentricity": 0.7507,
            "epoch": 0.0,
            "inclination": 0.45109322177182654,
            "longitude_of_ascending_node": 1.120051414951986,
            "mean_anomaly_at_epoch": 3.7819888627315525,
            "primary": "Neptune",
            "semi_major_axis": 5513818000.0
        },
        "radius": 170000.0
    },
    "Neso": {
        "gravitational_parameter": 11000000.0,
        "orbit": {
            "argument_of_periapsis": 1.5086800587164184,
            "eccentricity": 0.4243,
            "epoch": 108475200.0,
            "inclination": 2.5855763504103915,
            "longitude_of_ascending_node": 2.0577906601928198,
            "mean_anomaly_at_epoch": 4.549165788738181,
            "primary": "Neptune",
            "semi_major_axis": 50258000000.0
        },
        "radius": 30000.0
    },
    "Nix": {
        "gravitational_parameter": 1300000.0,
        "orbit": {
            "argument_of_periapsis": 5.662947650898362,
            "eccentricity": 0.0,
            "epoch": 410270400.0,
            "inclination": 1.9689765253650602,
            "longitude_of_ascending_node": 0.8263614588785387,
            "mean_anomaly_at_epoch": 4.963803659134473,
            "primary": "Pluto",
            "semi_major_axis": 48671000.0
        },
        "radius": 23000.0
    },
    "Oberon": {
        "gravitational_parameter": 192400000000.0,
        "orbit": {
            "argument_of_periapsis": 1.8221237390820801,
            "eccentricity": 0.0014,
            "epoch": -631195200.0,
            "inclination": 1.434843828086403,
            "longitude_of_ascending_node": 2.926189468398596,
            "mean_anomaly_at_epoch": 4.940817672885708,
            "primary": "Uranus",
            "semi_major_axis": 583500000.0
        },
        "radius": 761400.0
    },
    "Ophelia": {
        "gravitational_parameter": 3600000.0,
        "orbit": {
            "argument_of_periapsis": 0.30998792844671286,
            "eccentricity": 0.0099,
            "epoch": -440208000.0,
            "inclination": 1.436512498450745,
            "longitude_of_ascending_node": 2.9242250761448094,
            "mean_anomaly_at_epoch": 2.0291023350760877,
            "primary": "Uranus",
            "semi_major_axis": 53800000.0
        },
        "radius": 21400.0
    },
    "Orthosie": {
        "gravitational_parameter": 1000.0,
        "orbit": {
            "argument_of_periapsis": 3.783961084786306,
            "eccentricity": 0.2807,
            "epoch": -43200.0,
            "inclination": 2.5218084552399684,
            "longitude_of_ascending_node": 1.95649316474218,
            "mean_anomaly_at_epoch": 3.569495026301243,
            "primary": "Jupiter",
            "semi_major_axis": 21158000000.0
        },
        "radius": 1000.0
    },
    "Paaliaq": {
        "gravitational_parameter": 550000.0,
        "orbit": {
            "argument_of_periapsis": 4.145540945921971,
            "eccentricity": 0.3325,
            "epoch": -43200.0,
            "inclination": 0.6758137572641065,
            "longitude_of_ascending_node": 4.518550419528769,
            "mean_anomaly_at_epoch": 5.61392135220984,
            "primary": "Saturn",
            "semi_major_axis": 15204000000.0
        },
        "radius": 11000.0
    },
    "Pallene": {
        "gravitational_parameter": 2200.0,
        "orbit": {
            "argument_of_periapsis": 0.28054422396556855,
            "eccentricity": 0.004,
            "epoch": 0.0,
            "inclination": 0.48962956791390094,
            "longitude_of_ascending_node": 2.9587971817363385,
            "mean_anomaly_at_epoch": 6.21736894108688,
            "primary": "Saturn",
            "semi_major_axis": 212282000.0
        },
        "radius": 2500.0
    },
    "Pan": {
        "gravitational_parameter": 330000.0,
        "orbit": {
            "argument_of_periapsis": 1.8034661693782608,
            "eccentricity": 0.0,
            "epoch": 0.0,
            "inclination": 0.48961496020091116,
            "longitude_of_ascending_node": 2.958817491544435,
            "mean_anomaly_at_epoch": 6.129369440201327,
            "primary": "Saturn",
            "semi_major_axis": 133585000.0
        },
        "radius": 14100.0
    },
    "Pandora": {
        "gravitational_parameter": 9240000.0,
        "orbit": {
            "argument_of_periapsis": 1.1562457228612035,
            "eccentricity": 0.0042,
            "epoch": 0.0,
            "inclination": 0.49008727282065223,
            "longitude_of_ascending_node": 2.9572578529044025,
            "mean_anomaly_at_epoch": 2.1836163337551455,
            "primary": "Saturn",
            "semi_major_axis": 141810000.0
        },
        "radius": 40700.0
    },
    "Pasiphae": {
        "gravitational_parameter": 20000000.0,
        "orbit": {
            "argument_of_periapsis": 2.953550879979924,
            "eccentricity": 0.4062,
            "epoch": -43200.0,
            "inclination": 2.6143058208293932,
            "longitude_of_ascending_node": 3.479552570199842,
            "mean_anomaly_at_epoch": 4.882890195012016,
            "primary": "Jupiter",
            "semi_major_axis": 23629000000.0
        },
        "radius": 30000.0
    },
    "Pasithee": {
        "gravitational_parameter": 1000.0,
        "orbit": {
            "argument_of_periapsis": 4.047767601225249,
            "eccentricity": 0.2682,
            "epoch": -43200.0,
            "inclination": 2.8593266167473543,
            "longitude_of_ascending_node": 3.6486240466301023,
            "mean_anomaly_at_epoch": 3.7601897003741436,
            "primary": "Jupiter",
            "semi_major_axis": 23091000000.0
        },
        "radius": 1000.0
    }
}
